BEIDOU 3 (C01)          
1 36287U 10001A   22131.93850910 -.00000270  00000+0  00000+0 0  9990
2 36287   1.8227  46.4288 0004375  13.7005 287.8738  1.00273139 45148
BEIDOU 5 (C06)          
1 36828U 10036A   22131.88509024 -.00000062  00000+0  00000+0 0  9999
2 36828  54.1895 176.5635 0027911 190.5234 288.0735  1.00256847 43214
BEIDOU 6 (C04)          
1 37210U 10057A   22131.88729941 -.00000102  00000+0  00000+0 0  9995
2 37210   0.7934  43.3889 0001885 157.1274 148.5477  1.00273215 42263
BEIDOU 7 (C07)          
1 37256U 10068A   22131.86046635 -.00000203  00000+0  00000+0 0  9999
2 37256  50.2775 290.0813 0019946 181.9554 174.9746  1.00261065 41774
BEIDOU 8 (C08)          
1 37384U 11013A   22131.77392152 -.00000197  00000+0  00000+0 0  9992
2 37384  60.2393  54.6206 0017990 191.6465   9.9248  1.00265582 40657
BEIDOU 9 (C09)          
1 37763U 11038A   22131.88975691 -.00000021  00000+0  00000+0 0  9993
2 37763  54.4722 179.0509 0096449 227.4786 237.6224  1.00286641 39636
BEIDOU 10 (C10)         
1 37948U 11073A   22132.16458918 -.00000152  00000+0  00000+0 0  9992
2 37948  50.3939 289.7160 0078616 216.8831 236.9500  1.00260997 38394
BEIDOU 11 (C05)         
1 38091U 12008A   22131.92212958  .00000067  00000+0  00000+0 0  9990
2 38091   1.4839  66.4583 0015124 330.1452 223.7022  1.00271846 37468
BEIDOU 12 (C11)         
1 38250U 12018A   22132.15934985 -.00000064  00000+0  00000+0 0  9993
2 38250  56.7021 354.7578 0020552 256.4792 100.5408  1.86234367 68405
BEIDOU 13 (C12)         
1 38251U 12018B   22130.96283785 -.00000067  00000+0  00000+0 0  9999
2 38251  56.6228 354.1243 0011449 262.6572  56.3866  1.86234185 68388
BEIDOU 15 (C14)         
1 38775U 12050B   22131.52019861  .00000079  00000+0  00000+0 0  9993
2 38775  55.3809 112.9269 0015565 319.8435 209.3032  1.86231312 65778
BEIDOU 16 (C02)         
1 38953U 12059A   22132.07073181 -.00000165  00000+0  00000+0 0  9993
2 38953   1.8986  84.4172 0012792 298.4656 316.4998  1.00272164 35033
BEIDOU 17 (C31)         
1 40549U 15019A   22132.23172454 -.00000135  00000+0  00000+0 0  9994
2 40549  51.9499 313.1744 0036779 187.6882 263.3961  1.00251142 26077
BEIDOU 18 (C57)         
1 40748U 15037A   22131.41664138 -.00000066  00000+0  00000+0 0  9992
2 40748  55.8757 352.9979 0005523  27.9570 144.8144  1.86233300 46227
BEIDOU 19 (C58)         
1 40749U 15037B   22131.77063258 -.00000065  00000+0  00000+0 0  9997
2 40749  55.8788 352.9757 0005148 353.0052 191.7832  1.86232414 46227
BEIDOU 20 (C18)         
1 40938U 15053A   22131.28217778 -.00000132  00000+0  00000+0 0  9994
2 40938  51.5606 276.2990 0045983 193.2676 314.2167  1.00255463 24339
BEIDOU IGSO-6 (C13)     
1 41434U 16021A   22131.57368539 -.00000164  00000+0  00000+0 0  9991
2 41434  58.0503  53.2171 0044570 219.9787 257.0486  1.00290016 22466
BEIDOU-2 G7 (C03)       
1 41586U 16037A   22131.84563029 -.00000344  00000+0  00000+0 0  9997
2 41586   1.8975  69.2930 0008771   0.6479 214.5667  1.00276864 21776
BEIDOU-3 M1 (C19)       
1 43001U 17069A   22131.84632770  .00000078  00000+0  00000+0 0  9990
2 43001  55.5328 112.9115 0012636 292.2127 251.8212  1.86231664 30710
BEIDOU-3 M2 (C20)       
1 43002U 17069B   22132.04146698  .00000078  00000+0  00000+0 0  9993
2 43002  55.5339 112.9408 0010730 310.6389  47.3134  1.86231552 30702
BEIDOU-3 M3 (C27)       
1 43107U 18003A   22132.02370023 -.00000067  00000+0  00000+0 0  9996
2 43107  55.3258 353.9108 0005898  51.4577 100.6545  1.86232437 29472
BEIDOU-3 M4 (C28)       
1 43108U 18003B   22131.77157198 -.00000067  00000+0  00000+0 0  9994
2 43108  55.3183 353.9089 0001941 272.9196 114.2503  1.86230859 29471
BEIDOU-3 M5 (C21)       
1 43207U 18018A   22131.10255545  .00000080  00000+0  00000+0 0  9996
2 43207  55.4918 113.0517 0007730 325.5188  34.4288  1.86231726 28844
BEIDOU-3 M6 (C22)       
1 43208U 18018B   22131.43691985  .00000079  00000+0  00000+0 0  9993
2 43208  55.4915 113.0464 0010493 301.0036 238.3937  1.86231597 28846
BEIDOU-3 M7 (C29)       
1 43245U 18029A   22131.86220022 -.00000065  00000+0  00000+0 0  9999
2 43245  55.2410 351.6884 0001394  36.3251 277.9043  1.86232551 28004
BEIDOU-3 M8 (C30)       
1 43246U 18029B   22131.78839373 -.00000065  00000+0  10000-3 0  9991
2 43246  55.2371 351.7205 0005017   7.8997 303.3483  1.86232782 27990
BEIDOU IGSO-7 (C16)     
1 43539U 18057A   22131.72672462 -.00000069  00000+0  00000+0 0  9994
2 43539  55.0719 176.0292 0048694 226.8063 199.8059  1.00269525 14149
BEIDOU-3 M9 (C23)       
1 43581U 18062A   22131.49812896 -.00000010  00000+0  00000+0 0  9994
2 43581  54.2864 233.3487 0002875 275.5255  52.0313  1.86231866 25737
BEIDOU-3 M10 (C24)      
1 43582U 18062B   22131.52172450 -.00000010  00000+0  00000+0 0  9994
2 43582  54.2853 233.3382 0004439   9.6880  65.4350  1.86232237 25741
BEIDOU-3 M11 (C25)      
1 43602U 18067A   22131.41973918 -.00000009  00000+0  00000+0 0  9996
2 43602  54.3697 231.9530 0006791  11.4594  36.7646  1.86231678 25237
BEIDOU-3 M12 (C26)      
1 43603U 18067B   22131.66884458 -.00000007  00000+0  00000+0 0  9992
2 43603  54.3651 231.9116 0003792 356.1367 129.4874  1.86231850 25250
BEIDOU-3 M13 (C32)      
1 43622U 18072A   22132.16088103  .00000077  00000+0  00000+0 0  9994
2 43622  55.4587 112.5721 0009110 289.5985 195.2894  1.86231639 24776
BEIDOU-3 M14 (C33)      
1 43623U 18072B   22131.85117443  .00000078  00000+0  00000+0 0  9991
2 43623  55.4605 112.5746 0007043 306.1699  61.3089  1.86231626 24771
BEIDOU-3 M15 (C34)      
1 43647U 18078A   22132.09984272 -.00000065  00000+0  10000-3 0  9994
2 43647  55.1350 351.8416 0007321  11.3677  58.3499  1.86233102 24281
BEIDOU-3 M16 (C35)      
1 43648U 18078B   22131.69811949 -.00000066  00000+0  00000+0 0  9996
2 43648  55.1314 351.8614 0005659  20.7099  47.5204  1.86232147 24299
BEIDOU-3 G1 (C59)       
1 43683U 18085A   22131.86665885 -.00000267  00000+0  00000+0 0  9991
2 43683   0.8596 172.2971 0002702 326.2657 183.0677  1.00275705 13042
BEIDOU-3 M17 (C36)      
1 43706U 18093A   22131.74792168 -.00000008  00000+0  00000+0 0  9991
2 43706  54.3683 233.2243 0009148 272.4260  87.4862  1.86231919 23656
BEIDOU-3 M18 (C37)      
1 43707U 18093B   22131.60509529 -.00000009  00000+0  00000+0 0  9995
2 43707  54.3685 233.2190 0007246 302.8302  52.5045  1.86232214 23635
BEIDOU-3 IGSO-1 (C38)   
1 44204U 19023A   22131.78232892 -.00000226  00000+0  00000+0 0  9998
2 44204  56.5077  53.3662 0019201 203.4596  13.4094  1.00269090 11340
BEIDOU-2 G8             
1 44231U 19027A   22131.97781122 -.00000237  00000+0  00000+0 0  9990
2 44231   0.7752  74.6101 0003963 126.9054 164.7461  1.00275168 11061
BEIDOU-3 IGSO-2 (C39)   
1 44337U 19035A   22132.00601594 -.00000065  00000+0  00000+0 0  9994
2 44337  55.1101 172.0482 0023249 197.8148 340.7185  1.00264213 10680
BEIDOU-3 M23 (C45)      
1 44542U 19061A   22131.14669934 -.00000012  00000+0  00000+0 0  9999
2 44542  54.5944 233.3792 0007412 336.9858  22.9972  1.86231204 17890
BEIDOU-3 M24 (C46)      
1 44543U 19061B   22131.92930433 -.00000007  00000+0  00000+0 0  9995
2 44543  54.5933 233.3205 0004458 332.3262 103.6161  1.86231596 17907
BEIDOU-3 IGSO-3         
1 44709U 19073A   22131.86229794 -.00000177  00000+0  00000+0 0  9994
2 44709  57.3230 296.7619 0021862 172.4120 190.0421  1.00267377  9449
BEIDOU-3 M21            
1 44793U 19078A   22131.53685081 -.00000067  00000+0  10000-3 0  9994
2 44793  54.9840 351.8866 0007361  16.3848 349.8139  1.86232273 16764
BEIDOU-3 M22            
1 44794U 19078B   22131.83304674 -.00000066  00000+0  00000+0 0  9998
2 44794  54.9591 351.8693 0005321  15.1835 101.1998  1.86232761 16767
BEIDOU-3 M19            
1 44864U 19090A   22131.39905845  .00000079  00000+0  00000+0 0  9991
2 44864  55.3927 112.8114 0019072 272.7969 107.0965  1.86231818 16348
BEIDOU-3 M20            
1 44865U 19090B   22131.81611817  .00000078  00000+0  00000+0 0  9991
2 44865  55.3952 112.8284 0017472 285.2487 104.1399  1.86231788 16324
BEIDOU-3 G2             
1 45344U 20017A   22132.06994683 -.00000135  00000+0  00000+0 0  9993
2 45344   2.0932 350.2408 0004106  95.2897 249.5040  1.00272667  8251
BEIDOU-3 G3             
1 45807U 20040A   22132.04493981 -.00000346  00000+0  00000+0 0  9990
2 45807   1.5259 302.3846 0006161 337.4184  76.5930  1.00279011  7073
